0 FLOCK 3P 24
1 41956U 17008J   22161.17618662  .00005979  00000-0  18600-3 0  9998
2 41956  97.2821 231.0336 0005766 217.2836 142.8007 15.33666271296208
0 FLOCK 3P 24
1 41956U 17008J   22162.15486654  .00006189  00000-0  19239-3 0  9994
2 41956  97.2822 231.9982 0005860 213.1048 146.9829 15.33678646296352
0 FLOCK 3P 24
1 41956U 17008J   22162.61158102  .00006962  00000-0  21604-3 0  9997
2 41956  97.2822 232.4484 0005905 211.3085 148.7807 15.33685700296429
0 FLOCK 3P 24
1 41956U 17008J   22163.45976007  .00006635  00000-0  20595-3 0  9997
2 41956  97.2822 233.2845 0006009 208.0689 152.0230 15.33696244296555
0 FLOCK 3P 24
1 41956U 17008J   22163.45976007  .00006635  00000-0  20595-3 0  9997
2 41956  97.2822 233.2845 0006009 208.0689 152.0230 15.33696244296555
0 FLOCK 3P 24
1 41956U 17008J   22163.72073686  .00007098  00000-0  22010-3 0  9996
2 41956  97.2822 233.5417 0006053 207.1766 152.9161 15.33700820296590
0 FLOCK 3P 24
1 41956U 17008J   22164.43841907  .00008244  00000-0  25512-3 0  9998
2 41956  97.2823 234.2492 0006130 204.3823 155.7131 15.33713601296703
0 FLOCK 3P 24
1 41956U 17008J   22165.15609533  .00008837  00000-0  27317-3 0  9998
2 41956  97.2821 234.9568 0006197 201.5403 158.5580 15.33726729296814
0 FLOCK 3P 24
1 41956U 17008J   22165.15609533  .00008837  00000-0  27317-3 0  9998
2 41956  97.2821 234.9568 0006197 201.5403 158.5580 15.33726729296814
0 FLOCK 3P 24
1 41956U 17008J   22165.61279531  .00009411  00000-0  29065-3 0  9991
2 41956  97.2820 235.4070 0006254 199.8233 160.2768 15.33735802296888
0 FLOCK 3PP 3
1 43119U 18004J   22161.15893748  .00003597  00000-0  13808-3 0  9995
2 43119  97.3753 235.2995 0009897  39.9052 320.2913 15.27071774245103
0 FLOCK 3PP 3
1 43119U 18004J   22161.61762526  .00003629  00000-0  13924-3 0  9990
2 43119  97.3754 235.7528 0009850  38.4482 321.7457 15.27075222245179
0 FLOCK 3PP 3
1 43119U 18004J   22162.14183839  .00003832  00000-0  14686-3 0  9995
2 43119  97.3754 236.2709 0009791  36.6664 323.5243 15.27079565245258
0 FLOCK 3PP 3
1 43119U 18004J   22162.66605010  .00004037  00000-0  15455-3 0  9995
2 43119  97.3755 236.7889 0009725  34.9810 325.2066 15.27084176245339
0 FLOCK 3PP 3
1 43119U 18004J   22163.19026046  .00003776  00000-0  14473-3 0  9998
2 43119  97.3755 237.3070 0009672  33.2520 326.9325 15.27087708245418
0 FLOCK 3PP 3
1 43119U 18004J   22163.45236509  .00003830  00000-0  14676-3 0  9990
2 43119  97.3756 237.5660 0009648  32.4280 327.7550 15.27089859245455
0 FLOCK 3PP 3
1 43119U 18004J   22163.71446942  .00004061  00000-0  15542-3 0  9993
2 43119  97.3756 237.8252 0009625  31.5836 328.5979 15.27092509245491
0 FLOCK 3PP 3
1 43119U 18004J   22164.17315037  .00004778  00000-0  18233-3 0  9999
2 43119  97.3756 238.2785 0009585  30.0724 330.1063 15.27098257245569
0 FLOCK 3PP 3
1 43119U 18004J   22164.63183005  .00005122  00000-0  19524-3 0  9996
2 43119  97.3755 238.7318 0009540  28.5592 331.6168 15.27103279245632
0 FLOCK 3PP 3
1 43119U 18004J   22164.63183005  .00005122  00000-0  19524-3 0  9996
2 43119  97.3755 238.7318 0009540  28.5592 331.6168 15.27103279245632
0 FLOCK 3PP 3
1 43119U 18004J   22165.15603396  .00005528  00000-0  21046-3 0  9996
2 43119  97.3754 239.2500 0009490  26.7190 333.4536 15.27108922245716
0 FLOCK 3PP 3
1 43119U 18004J   22165.68023561  .00005926  00000-0  22535-3 0  9990
2 43119  97.3754 239.7682 0009432  24.9399 335.2294 15.27115260245791
0 FLOCK 3PP 3
1 43119U 18004J   22165.68023561  .00005926  00000-0  22535-3 0  9990
2 43119  97.3754 239.7682 0009432  24.9399 335.2294 15.27115260245791
